start=new Date('2022-03-07T00:00:00.000Z').valueOf();
sats=[{"MEAN_MOTION_DDOT":"0.0000000000000","NORAD_CAT_ID":"44238","FILE":"3347638","ECCENTRICITY":"0.00011220","TLE_LINE2":"2 44238  53.0012 228.8277 0001122  51.4952 308.6143 15.22362106152485","RCS_SIZE":"LARGE","CENTER_NAME":"EARTH","OBJECT_NAME":"STARLINK-24","SITE":"AFETR","TIME_SYSTEM":"UTC","MEAN_MOTION_DOT":"0.00056341","SEMIMAJOR_AXIS":"6876.855","PERIOD":"94.590","MEAN_ELEMENT_THEORY":"SGP4","EPHEMERIS_TYPE":"0","APOAPSIS":"499.492","RA_OF_ASC_NODE":"228.8277","OBJECT_TYPE":"PAYLOAD","OBJECT_ID":"2019-029D","TLE_LINE1":"1 44238U 19029D   22065.45916622  .00056341  00000-0  24060-2 0  9995","BSTAR":"0.00240600000000","ELEMENT_SET_NO":"999","MEAN_MOTION":"15.22362106","ARG_OF_PERICENTER":"51.4952","EPOCH":"2022-03-06T11:01:11.961408","CLASSIFICATION_TYPE":"U","INCLINATION":"53.0012","LAUNCH_DATE":"2019-05-24","DECAY_DATE":null,"REF_FRAME":"TEME","REV_AT_EPOCH":"15248","GP_ID":"198064549","PERIAPSIS":"497.948","MEAN_ANOMALY":"308.6143","COUNTRY_CODE":"US"},{"DECAY_DATE":null,"REF_FRAME":"TEME","REV_AT_EPOCH":"15478","EPOCH":"2022-03-06T17:11:43.967904","INCLINATION":"52.9759","LAUNCH_DATE":"2019-05-24","CLASSIFICATION_TYPE":"U","COUNTRY_CODE":"US","PERIAPSIS":"470.029","MEAN_ANOMALY":"169.0299","GP_ID":"198072551","CENTER_NAME":"EARTH","OBJECT_NAME":"STARLINK-61","TIME_SYSTEM":"UTC","SITE":"AFETR","MEAN_MOTION_DOT":"0.00080447","NORAD_CAT_ID":"44249","MEAN_MOTION_DDOT":"0.0000000000000","TLE_LINE2":"2 44249  52.9759 190.5720 0003695 191.0619 169.0299 15.31090114154782","RCS_SIZE":"LARGE","ECCENTRICITY":"0.00036950","FILE":"3347714","OBJECT_ID":"2019-029Q","OBJECT_TYPE":"PAYLOAD","BSTAR":"0.00262500000000","TLE_LINE1":"1 44249U 19029Q   22065.71648111  .00080447  00000-0  26250-2 0  9998","RA_OF_ASC_NODE":"190.5720","ARG_OF_PERICENTER":"191.0619","ELEMENT_SET_NO":"999","MEAN_MOTION":"15.31090114","SEMIMAJOR_AXIS":"6850.696","APOAPSIS":"475.092","MEAN_ELEMENT_THEORY":"SGP4","PERIOD":"94.051","EPHEMERIS_TYPE":"0"},{"EPOCH":"2022-03-06T18:19:28.926336","INCLINATION":"53.0026","LAUNCH_DATE":"2019-05-24","CLASSIFICATION_TYPE":"U","DECAY_DATE":null,"REV_AT_EPOCH":"15422","REF_FRAME":"TEME","GP_ID":"198072579","COUNTRY_CODE":"US","MEAN_ANOMALY":"356.9729","PERIAPSIS":"488.092","NORAD_CAT_ID":"44252","MEAN_MOTION_DDOT":"0.0000000000000","RCS_SIZE":"LARGE","TLE_LINE2":"2 44252  53.0026 225.0617 0003472   3.1288 356.9729 15.25103385154224","FILE":"3347716","ECCENTRICITY":"0.00034720","SITE":"AFETR","TIME_SYSTEM":"UTC","CENTER_NAME":"EARTH","OBJECT_NAME":"STARLINK-71","MEAN_MOTION_DOT":"0.00048181","SEMIMAJOR_AXIS":"6868.612","APOAPSIS":"492.862","EPHEMERIS_TYPE":"0","MEAN_ELEMENT_THEORY":"SGP4","PERIOD":"94.420","BSTAR":"0.00190060000000","TLE_LINE1":"1 44252U 19029T   22065.76352924  .00048181  00000-0  19006-2 0  9991","OBJECT_TYPE":"PAYLOAD","OBJECT_ID":"2019-029T","RA_OF_ASC_NODE":"225.0617","ARG_OF_PERICENTER":"3.1288","MEAN_MOTION":"15.25103385","ELEMENT_SET_NO":"999"},{"GP_ID":"198072781","COUNTRY_CODE":"US","MEAN_ANOMALY":"336.2447","PERIAPSIS":"415.628","EPOCH":"2022-03-06T12:29:58.311456","INCLINATION":"53.0121","LAUNCH_DATE":"2019-05-24","CLASSIFICATION_TYPE":"U","DECAY_DATE":null,"REV_AT_EPOCH":"15572","REF_FRAME":"TEME","SEMIMAJOR_AXIS":"6798.475","APOAPSIS":"425.052","EPHEMERIS_TYPE":"0","PERIOD":"92.977","MEAN_ELEMENT_THEORY":"SGP4","BSTAR":"0.00218980000000","TLE_LINE1":"1 44282U 19029AZ  22065.52081379  .00121007  00000-0  21898-2 0  9992","OBJECT_ID":"2019-029AZ","OBJECT_TYPE":"PAYLOAD","RA_OF_ASC_NODE":"123.5489","ARG_OF_PERICENTER":"23.8881","MEAN_MOTION":"15.48764816","ELEMENT_SET_NO":"999","NORAD_CAT_ID":"44282","MEAN_MOTION_DDOT":"0.0000000000000","RCS_SIZE":"LARGE","TLE_LINE2":"2 44282  53.0121 123.5489 0006931  23.8881 336.2447 15.48764816155724","ECCENTRICITY":"0.00069310","FILE":"3347739","SITE":"AFETR","TIME_SYSTEM":"UTC","OBJECT_NAME":"STARLINK-80","CENTER_NAME":"EARTH","MEAN_MOTION_DOT":"0.00121007"},{"INCLINATION":"53.0516","LAUNCH_DATE":"2019-11-11","CLASSIFICATION_TYPE":"U","EPOCH":"2022-03-06T07:36:43.501824","REF_FRAME":"TEME","REV_AT_EPOCH":"12803","DECAY_DATE":null,"GP_ID":"198064088","COUNTRY_CODE":"US","PERIAPSIS":"546.208","MEAN_ANOMALY":"279.6094","TLE_LINE2":"2 44713  53.0516 280.4393 0001433  80.5057 279.6094 15.06404185128031","RCS_SIZE":"LARGE","ECCENTRICITY":"0.00014330","FILE":"3347638","NORAD_CAT_ID":"44713","MEAN_MOTION_DDOT":"0.0000000000000","MEAN_MOTION_DOT":"0.00003215","CENTER_NAME":"EARTH","OBJECT_NAME":"STARLINK-1007","TIME_SYSTEM":"UTC","SITE":"AFETR","APOAPSIS":"548.193","PERIOD":"95.592","MEAN_ELEMENT_THEORY":"SGP4","EPHEMERIS_TYPE":"0","SEMIMAJOR_AXIS":"6925.336","ARG_OF_PERICENTER":"80.5057","ELEMENT_SET_NO":"999","MEAN_MOTION":"15.06404185","OBJECT_ID":"2019-074A","OBJECT_TYPE":"PAYLOAD","BSTAR":"0.00023458000000","TLE_LINE1":"1 44713U 19074A   22065.31717016  .00003215  00000-0  23458-3 0  9997","RA_OF_ASC_NODE":"280.4393"},{"NORAD_CAT_ID":"44714","MEAN_MOTION_DDOT":"0.0000000000000","RCS_SIZE":"LARGE","TLE_LINE2":"2 44714  53.0552 278.1651 0001673  73.7908 286.3265 15.06398776128288","FILE":"3347859","ECCENTRICITY":"0.00016730","SITE":"AFETR","TIME_SYSTEM":"UTC","OBJECT_NAME":"STARLINK-1008","CENTER_NAME":"EARTH","MEAN_MOTION_DOT":"-0.00000735","SEMIMAJOR_AXIS":"6925.352","APOAPSIS":"548.376","EPHEMERIS_TYPE":"0","MEAN_ELEMENT_THEORY":"SGP4","PERIOD":"95.592","BSTAR":"-0.00003041800000","TLE_LINE1":"1 44714U 19074B   22065.82677984 -.00000735  00000-0 -30418-4 0  9994","OBJECT_ID":"2019-074B","OBJECT_TYPE":"PAYLOAD","RA_OF_ASC_NODE":"278.1651","ARG_OF_PERICENTER":"73.7908","MEAN_MOTION":"15.06398776","ELEMENT_SET_NO":"999","EPOCH":"2022-03-06T19:50:33.778176","INCLINATION":"53.0552","LAUNCH_DATE":"2019-11-11","CLASSIFICATION_TYPE":"U","DECAY_DATE":null,"REV_AT_EPOCH":"12828","REF_FRAME":"TEME","GP_ID":"198075239","COUNTRY_CODE":"US","MEAN_ANOMALY":"286.3265","PERIAPSIS":"546.059"},{"MEAN_MOTION_DDOT":"0.0000000000000","NORAD_CAT_ID":"44715","ECCENTRICITY":"0.00014920","FILE":"3347638","RCS_SIZE":"LARGE","TLE_LINE2":"2 44715  53.0531 279.3976 0001492  83.6593 276.4566 15.06401437128067","SITE":"AFETR","TIME_SYSTEM":"UTC","OBJECT_NAME":"STARLINK-1009","CENTER_NAME":"EARTH","MEAN_MOTION_DOT":"0.00001731","SEMIMAJOR_AXIS":"6925.344","EPHEMERIS_TYPE":"0","MEAN_ELEMENT_THEORY":"SGP4","PERIOD":"95.592","APOAPSIS":"548.242","RA_OF_ASC_NODE":"279.3976","TLE_LINE1":"1 44715U 19074C   22065.55032829  .00001731  00000-0  13505-3 0  9990","BSTAR":"0.00013505000000","OBJECT_ID":"2019-074C","OBJECT_TYPE":"PAYLOAD","MEAN_MOTION":"15.06401437","ELEMENT_SET_NO":"999","ARG_OF_PERICENTER":"83.6593","EPOCH":"2022-03-06T13:12:28.364256","CLASSIFICATION_TYPE":"U","LAUNCH_DATE":"2019-11-11","INCLINATION":"53.0531","DECAY_DATE":null,"REV_AT_EPOCH":"12806","REF_FRAME":"TEME","GP_ID":"198065090","MEAN_ANOMALY":"276.4566","PERIAPSIS":"546.176","COUNTRY_CODE":"US"},{"EPOCH":"2022-03-06T20:01:10.726752","INCLINATION":"53.0531","LAUNCH_DATE":"2019-11-11","CLASSIFICATION_TYPE":"U","DECAY_DATE":null,"REV_AT_EPOCH":"12826","REF_FRAME":"TEME","GP_ID":"198076944","COUNTRY_CODE":"US","MEAN_ANOMALY":"276.6342","PERIAPSIS":"546.329","NORAD_CAT_ID":"44716","MEAN_MOTION_DDOT":"0.0000000000000","RCS_SIZE":"LARGE","TLE_LINE2":"2 44716  53.0531 278.1317 0001274  83.4792 276.6342 15.06400675128260","FILE":"3347899","ECCENTRICITY":"0.00012740","TIME_SYSTEM":"UTC","SITE":"AFETR","CENTER_NAME":"EARTH","OBJECT_NAME":"STARLINK-1010","MEAN_MOTION_DOT":"0.00001871","SEMIMAJOR_AXIS":"6925.346","APOAPSIS":"548.094","EPHEMERIS_TYPE":"0","MEAN_ELEMENT_THEORY":"SGP4","PERIOD":"95.592","TLE_LINE1":"1 44716U 19074D   22065.83415193  .00001871  00000-0  14445-3 0  9990","BSTAR":"0.00014445000000","OBJECT_ID":"2019-074D","OBJECT_TYPE":"PAYLOAD","RA_OF_ASC_NODE":"278.1317","ARG_OF_PERICENTER":"83.4792","MEAN_MOTION":"15.06400675","ELEMENT_SET_NO":"999"},{"PERIAPSIS":"545.929","MEAN_ANOMALY":"296.6464","COUNTRY_CODE":"US","GP_ID":"198064589","DECAY_DATE":null,"REF_FRAME":"TEME","REV_AT_EPOCH":"12776","EPOCH":"2022-03-06T08:49:43.488480","CLASSIFICATION_TYPE":"U","INCLINATION":"53.0545","LAUNCH_DATE":"2019-11-11","RA_OF_ASC_NODE":"300.2034","OBJECT_TYPE":"PAYLOAD","OBJECT_ID":"2019-074E","TLE_LINE1":"1 44717U 19074E   22065.36786445  .00001031  00000-0  88125-4 0  9995","BSTAR":"0.00008812500000","ELEMENT_SET_NO":"999","MEAN_MOTION":"15.06408353","ARG_OF_PERICENTER":"63.4711","SEMIMAJOR_AXIS":"6925.323","MEAN_ELEMENT_THEORY":"SGP4","PERIOD":"95.592","EPHEMERIS_TYPE":"0","APOAPSIS":"548.447","CENTER_NAME":"EARTH","OBJECT_NAME":"STARLINK-1011","SITE":"AFETR","TIME_SYSTEM":"UTC","MEAN_MOTION_DOT":"0.00001031","MEAN_MOTION_DDOT":"0.0000000000000","NORAD_CAT_ID":"44717","ECCENTRICITY":"0.00018180","FILE":"3347638","TLE_LINE2":"2 44717  53.0545 300.2034 0001818  63.4711 296.6464 15.06408353127764","RCS_SIZE":"LARGE"},{"GP_ID":"198075739","COUNTRY_CODE":"US","PERIAPSIS":"546.091","MEAN_ANOMALY":"283.2759","INCLINATION":"53.0544","LAUNCH_DATE":"2019-11-11","CLASSIFICATION_TYPE":"U","EPOCH":"2022-03-06T17:43:10.454016","REF_FRAME":"TEME","REV_AT_EPOCH":"12826","DECAY_DATE":null,"APOAPSIS":"548.329","PERIOD":"95.592","MEAN_ELEMENT_THEORY":"SGP4","EPHEMERIS_TYPE":"0","SEMIMAJOR_AXIS":"6925.345","ARG_OF_PERICENTER":"76.8410","ELEMENT_SET_NO":"999","MEAN_MOTION":"15.06401066","OBJECT_ID":"2019-074F","OBJECT_TYPE":"PAYLOAD","BSTAR":"-0.00000238380000","TLE_LINE1":"1 44718U 19074F   22065.73831544 -.00000317  00000-0 -23838-5 0  9997","RA_OF_ASC_NODE":"278.5537","TLE_LINE2":"2 44718  53.0544 278.5537 0001616  76.8410 283.2759 15.06401066128268","RCS_SIZE":"LARGE","FILE":"3347834","ECCENTRICITY":"0.00016160","NORAD_CAT_ID":"44718","MEAN_MOTION_DDOT":"0.0000000000000","MEAN_MOTION_DOT":"-0.00000317","CENTER_NAME":"EARTH","OBJECT_NAME":"STARLINK-1012","TIME_SYSTEM":"UTC","SITE":"AFETR"}];
